STARLINK-37656          
1 69649U 26143A   26198.08963685  .00025281  00000+0  46470-3 0  9992
2 69649  97.2849 241.9910 0000935 105.0816 255.0539 15.49208037  5170
STARLINK-37646          
1 69650U 26143B   26198.40359774 -.00159329  00000+0 -30305-2 0  9990
2 69650  97.2850 242.4838 0003494 139.4005 220.7507 15.48770998  5233
STARLINK-37749          
1 69651U 26143C   26198.08738233  .00015885  00000+0  29288-3 0  9991
2 69651  97.2842 242.1477 0000824 138.7142 221.4172 15.49215976  5180
STARLINK-37819          
1 69652U 26143D   26198.09895882  .00037410  00000+0  68551-3 0  9991
2 69652  97.2815 242.1313 0001683  91.4316 268.7128 15.49219289  5188
STARLINK-37729          
1 69653U 26143E   26198.58335648 -.02388521  00000+0 -17460-1 0  9992
2 69653  97.2843 243.1307 0001382 102.7332 192.6729 15.76594683  5348
STARLINK-37838          
1 69654U 26143F   26198.06935132  .00021920  00000+0  40327-3 0  9993
2 69654  97.2838 242.1737 0000879  65.1728 294.9614 15.49210925  5185
STARLINK-37884          
1 69655U 26143G   26198.62518900 -.01215353  00000+0 -27625-1 0  9998
2 69655  97.2843 242.6416 0001501  70.2332 289.9079 15.45792466  5261
STARLINK-37876          
1 69656U 26143H   26198.58335648 -.02908808  00000+0 -75374-1 0  9999
2 69656  97.2857 242.6967 0001300  84.3634 243.3876 15.42673410  5247
STARLINK-37784          
1 69657U 26143J   26198.09984513  .00023853  00000+0  43826-3 0  9990
2 69657  97.2853 242.1322 0001407 101.5269 258.6141 15.49231973  5119
STARLINK-37851          
1 69658U 26143K   26198.07193549  .00020222  00000+0  37230-3 0  9999
2 69658  97.2843 242.1702 0000622  94.0044 266.1279 15.49205906  5119
STARLINK-37229          
1 69659U 26143L   26198.60948327 -.01287485  00000+0 -29834-1 0  9999
2 69659  97.2842 242.6623 0002130  89.9089 270.2405 15.45394419  5205
STARLINK-37556          
1 69660U 26143M   26198.58335648  .00057712  00000+0  15889-2 0  9995
2 69660  97.2844 242.6241 0001088  91.5810  93.3038 15.36957755  5289
STARLINK-37867          
1 69661U 26143N   26198.58335648 -.02376502  00000+0 -73104-1 0  9994
2 69661  97.2992 242.6641 0001594 102.4785 176.5866 15.37341858  5244
STARLINK-37852          
1 69662U 26143P   26198.10395790  .00024473  00000+0  44996-3 0  9999
2 69662  97.2850 242.1269 0001251  85.5773 274.5621 15.49206865  5112
STARLINK-37554          
1 69663U 26143Q   26198.58335648 -.01611614  00000+0 -48012-1 0  9991
2 69663  97.2846 242.6525 0001890  70.4188 170.0241 15.38091765  5285
STARLINK-37830          
1 69664U 26143R   26198.58335648 -.02939306  00000+0 -73819-1 0  9997
2 69664  97.2849 242.6308 0002699 118.4508  62.3585 15.43623014  5238
STARLINK-37837          
1 69665U 26143S   26198.58335648  .00048962  00000+0  13499-2 0  9992
2 69665  97.2837 242.6163 0000770  93.4756  75.4771 15.36957654  5245
STARLINK-37943          
1 69666U 26143T   26198.41921019  .00021123  00000+0  38882-3 0  9992
2 69666  97.2841 242.4626 0001533  92.1336 268.0091 15.49202266  5163
STARLINK-37941          
1 69667U 26143U   26198.08361887  .00027772  00000+0  51017-3 0  9998
2 69667  97.2839 242.1529 0000900 102.7732 257.3620 15.49208253  5111
STARLINK-37930          
1 69668U 26143V   26198.08308824  .00029225  00000+0  53610-3 0  9997
2 69668  97.2839 242.1534 0001166 117.7877 242.3492 15.49238300  5116
STARLINK-37945          
1 69669U 26143W   26198.07018358  .00021140  00000+0  38917-3 0  9998
2 69669  97.2808 242.1687 0000806  71.0791 289.0547 15.49200166  5117
STARLINK-37948          
1 69670U 26143X   26198.11808790  .00010951  00000+0  20259-3 0  9990
2 69670  97.2838 242.1074 0000719 351.2853   8.8386 15.49208573  5115
STARLINK-37949          
1 69671U 26143Y   26198.54582933  .00022540  00000+0  41443-3 0  9991
2 69671  97.2847 242.5951 0000725 333.0142  27.1071 15.49223378  5182
STARLINK-37946          
1 69672U 26143Z   26198.40271669  .00013921  00000+0  25707-3 0  9996
2 69672  97.2849 242.4851 0000943  89.5484 270.5875 15.49200377  5165
TJS-26A                 
1 69674U 26144A   26193.29904564 -.00000341  00000+0  00000+0 0  9996
2 69674   6.9538 323.2302 0004208 347.4913 194.6526  1.00274367   198
STARLINK-38005          
1 69677U 26145A   26198.52723261  .00175080  00000+0  11474-2 0  9996
2 69677  97.2832  45.4758 0001762 108.8579 251.2877 15.75257943  3547
STARLINK-38009          
1 69678U 26145B   26198.52546943  .00188004  00000+0  12302-2 0  9998
2 69678  97.2845  45.4791 0001598  97.5498 262.5949 15.75256704  3549
STARLINK-37998          
1 69679U 26145C   26198.52299839  .00206751  00000+0  13493-2 0  9990
2 69679  97.2835  45.4822 0001396  99.8381 260.3042 15.75265280  3545
STARLINK-37994          
1 69680U 26145D   26198.07971507  .00153568  00000+0  10127-2 0  9999
2 69680  97.2836  45.0135 0001205 106.6843 253.4555 15.75175282  3476
